NORAD_CAT_ID,OBJECT_NAME,OBJECT_TYPE,EPOCH,MEAN_MOTION,ECCENTRICITY,INCLINATION,RA_OF_ASC_NODE,ARG_OF_PERICENTER,MEAN_ANOMALY,BSTAR,MEAN_MOTION_DOT,MEAN_MOTION_DDOT,TLE_LINE0,TLE_LINE1,TLE_LINE2,SEMIMAJOR_AXIS,PERIOD,APOGEE,PERIGEE,DECAYED
52498.0,STARLINK-3925,PAYLOAD,2023-06-25 02:13:25,15.08844404,9.91e-05,53.2141,157.1035,103.2642,256.8461,-5.9455e-05,-1.234e-05,0.0,0 STARLINK-3925,1 52498U 22049AZ  23176.09266177 -.00001234  00000-0 -59455-4 0  9996,2 52498  53.2141 157.1035 0000991 103.2642 256.8461 15.08844404 63442,6917.867,95.437,540.417,539.046,0.0
52498.0,STARLINK-3925,PAYLOAD,2023-06-26 08:25:44,15.08849636,0.0001004,53.2152,151.4541,92.9143,267.1964,-3.5325e-05,-8.5e-06,0.0,0 STARLINK-3925,1 52498U 22049AZ  23177.35121268 -.00000850  00000-0 -35325-4 0  9990,2 52498  53.2152 151.4541 0001004  92.9143 267.1964 15.08849636 63635,6917.851,95.437,540.41,539.021,0.0
52498.0,STARLINK-3925,PAYLOAD,2023-06-26 14:47:17,15.08841283,0.0001034,53.2157,150.264,91.3741,268.7369,-9.2127e-05,-1.754e-05,0.0,0 STARLINK-3925,1 52498U 22049AZ  23177.61617870 -.00001754  00000-0 -92127-4 0  9995,2 52498  53.2157 150.2640 0001034  91.3741 268.7369 15.08841283 63677,6917.876,95.437,540.457,539.026,0.0
52498.0,STARLINK-3925,PAYLOAD,2023-06-27 01:55:00,15.08829718,9.66e-05,53.2148,148.1834,91.946,268.1643,3.2103e-06,-2.37e-06,0.0,0 STARLINK-3925,1 52498U 22049AZ  23178.07986509 -.00000237  00000-0  32103-5 0  9997,2 52498  53.2148 148.1834 0000966  91.9460 268.1643 15.08829718 63741,6917.912,95.438,540.445,539.109,0.0
52498.0,STARLINK-3925,PAYLOAD,2023-06-27 09:51:55,15.08837073,0.0001023,53.2152,146.6962,96.2616,263.8493,3.9709e-05,3.44e-06,0.0,0 STARLINK-3925,1 52498U 22049AZ  23178.41106007  .00000344  00000-0  39709-4 0  9998,2 52498  53.2152 146.6962 0001023  96.2616 263.8493 15.08837073 63790,6917.889,95.438,540.462,539.047,0.0
52498.0,STARLINK-3925,PAYLOAD,2023-06-29 04:47:20,15.08838416,0.0001061,53.2158,138.6682,97.0513,263.06,6.9162e-05,8.13e-06,0.0,0 STARLINK-3925,1 52498U 22049AZ  23180.19954382  .00000813  00000-0  69162-4 0  9990,2 52498  53.2158 138.6682 0001061  97.0513 263.0600 15.08838416 64068,6917.885,95.438,540.484,539.016,0.0
52498.0,STARLINK-3925,PAYLOAD,2023-06-30 14:10:26,15.08836987,0.0001107,53.2165,132.4229,87.1956,272.9162,2.4796e-05,1.07e-06,0.0,0 STARLINK-3925,1 52498U 22049AZ  23181.59058605  .00000107  00000-0  24796-4 0  9998,2 52498  53.2165 132.4229 0001107  87.1956 272.9162 15.08836987 64273,6917.89,95.438,540.52,538.989,0.0
52498.0,STARLINK-3925,PAYLOAD,2023-07-02 02:44:18,15.08849931,0.0001163,53.2161,125.5826,86.9281,273.1844,1.1484e-05,-1.05e-06,0.0,0 STARLINK-3925,1 52498U 22049AZ  23183.11410006 -.00000105  00000-0  11484-4 0  9994,2 52498  53.2161 125.5826 0001163  86.9281 273.1844 15.08849931 64504,6917.85,95.437,540.52,538.91,0.0
52498.0,STARLINK-3925,PAYLOAD,2023-07-03 00:59:42,15.08836062,0.0001186,53.2161,121.4198,83.7468,276.3659,9.1075e-05,1.162e-05,0.0,0 STARLINK-3925,1 52498U 22049AZ  23184.04146640  .00001162  00000-0  91075-4 0  9994,2 52498  53.2161 121.4198 0001186  83.7468 276.3659 15.08836062 64643,6917.892,95.438,540.578,538.937,0.0
52498.0,STARLINK-3925,PAYLOAD,2023-07-04 02:25:52,15.08844403,0.0001225,53.2169,116.6642,85.9886,274.1247,-1.1347e-05,-4.68e-06,0.0,0 STARLINK-3925,1 52498U 22049AZ  23185.10130529 -.00000468  00000-0 -11347-4 0  9995,2 52498  53.2169 116.6642 0001225  85.9886 274.1247 15.08844403 64808,6917.867,95.437,540.579,538.884,0.0
52498.0,STARLINK-3925,PAYLOAD,2023-07-05 00:41:17,15.08835171,0.0001255,53.2167,112.4989,101.5858,258.5275,8.6198e-06,-1.51e-06,0.0,0 STARLINK-3925,1 52498U 22049AZ  23186.02867109 -.00000151  00000-0  86198-5 0  9993,2 52498  53.2167 112.4989 0001255 101.5858 258.5275 15.08835171 64945,6917.895,95.438,540.628,538.892,0.0
52498.0,STARLINK-3925,PAYLOAD,2023-07-06 03:42:53,15.08799223,0.0001273,53.2168,107.4455,85.017,275.0968,-0.00029992,-5.052e-05,0.0,0 STARLINK-3925,1 52498U 22049AZ  23187.15478856 -.00005052  00000-0 -29992-3 0  9998,2 52498  53.2168 107.4455 0001273  85.0170 275.0968 15.08799223 65111,6918.005,95.44,540.751,538.989,0.0
52498.0,STARLINK-3925,PAYLOAD,2023-07-06 18:01:20,15.08821243,6.5e-05,53.2168,104.765,54.4067,305.6986,-0.00011806,-2.165e-05,0.0,0 STARLINK-3925,1 52498U 22049AZ  23187.75093523 -.00002165  00000-0 -11806-3 0  9995,2 52498  53.2168 104.7650 0000650  54.4067 305.6986 15.08821243 65209,6917.938,95.439,540.252,539.353,0.0
52498.0,STARLINK-3925,PAYLOAD,2023-07-07 03:33:39,15.08830081,0.0002056,53.2167,102.9839,65.2441,294.8765,2.2834e-05,7.5e-07,0.0,0 STARLINK-3925,1 52498U 22049AZ  23188.14837170  .00000075  00000-0  22834-4 0  9993,2 52498  53.2167 102.9839 0002056  65.2441 294.8765 15.08830081 65265,6917.911,95.438,541.198,538.353,0.0
52498.0,STARLINK-3925,PAYLOAD,2023-07-07 17:52:06,15.08865519,0.0001415,53.2158,100.3039,68.2855,291.8288,-6.584e-05,-1.336e-05,0.0,0 STARLINK-3925,1 52498U 22049AZ  23188.74451416 -.00001336  00000-0 -65840-4 0  9991,2 52498  53.2158 100.3039 0001415  68.2855 291.8288 15.08865519 65350,6917.802,95.436,540.646,538.689,0.0
52498.0,STARLINK-3925,PAYLOAD,2023-07-08 03:24:23,15.0886454,0.0001252,53.2164,98.5224,71.7117,288.4012,0.00017476,2.496e-05,0.0,0 STARLINK-3925,1 52498U 22049AZ  23189.14194056  .00002496  00000-0  17476-3 0  9997,2 52498  53.2164  98.5224 0001252  71.7117 288.4012 15.08864540 65417,6917.805,95.436,540.536,538.804,0.0
52498.0,STARLINK-3925,PAYLOAD,2023-07-08 11:21:20,15.08826506,0.0001006,53.2172,97.0371,78.6018,281.5087,0.00034788,5.251e-05,0.0,0 STARLINK-3925,1 52498U 22049AZ  23189.47315879  .00005251  00000-0  34788-3 0  9998,2 52498  53.2172  97.0371 0001006  78.6018 281.5087 15.08826506 65467,6917.922,95.438,540.483,539.091,0.0
52498.0,STARLINK-3925,PAYLOAD,2023-07-09 03:15:12,15.08847328,0.000121,53.2179,94.0627,91.6083,268.5048,-2.799e-06,-3.32e-06,0.0,0 STARLINK-3925,1 52498U 22049AZ  23190.13555630 -.00000332  00000-0 -27990-5 0  9990,2 52498  53.2179  94.0627 0001210  91.6083 268.5048 15.08847328 65567,6917.858,95.437,540.56,538.886,0.0
52498.0,STARLINK-3925,PAYLOAD,2023-07-09 11:12:08,15.08841631,0.0001311,53.2175,92.5768,78.5378,281.5761,-6.1301e-05,-1.263e-05,0.0,0 STARLINK-3925,1 52498U 22049AZ  23190.46676094 -.00001263  00000-0 -61301-4 0  9991,2 52498  53.2175  92.5768 0001311  78.5378 281.5761 15.08841631 65619,6917.875,95.437,540.647,538.833,0.0
52498.0,STARLINK-3925,PAYLOAD,2023-07-10 23:45:58,15.08844711,0.0001092,53.2166,85.7365,93.5583,266.5534,0.00044131,6.743e-05,0.0,0 STARLINK-3925,1 52498U 22049AZ  23191.99025531  .00006743  00000-0  44131-3 0  9991,2 52498  53.2166  85.7365 0001092  93.5583 266.5534 15.08844711 65845,6917.866,95.437,540.486,538.976,0.0
52498.0,STARLINK-3925,PAYLOAD,2023-07-11 02:56:43,15.08863674,0.0001157,53.2167,85.1416,88.4539,271.6586,0.00020829,3.031e-05,0.0,0 STARLINK-3925,1 52498U 22049AZ  23192.12272699  .00003031  00000-0  20829-3 0  9991,2 52498  53.2167  85.1416 0001157  88.4539 271.6586 15.08863674 65868,6917.808,95.436,540.473,538.873,0.0
52498.0,STARLINK-3925,PAYLOAD,2023-07-12 02:47:33,15.08836436,0.0001146,53.2166,80.6812,96.9137,263.1985,-5.3268e-05,-1.135e-05,0.0,0 STARLINK-3925,1 52498U 22049AZ  23193.11635507 -.00001135  00000-0 -53268-4 0  9991,2 52498  53.2166  80.6812 0001146  96.9137 263.1985 15.08836436 66016,6917.891,95.438,540.549,538.963,0.0
52498.0,STARLINK-3925,PAYLOAD,2023-07-13 15:21:26,15.08809122,0.0001193,53.2165,73.8423,114.0427,246.069,0.0004229,6.443e-05,0.0,0 STARLINK-3925,1 52498U 22049AZ  23194.63989086  .00006443  00000-0  42290-3 0  9990,2 52498  53.2165  73.8423 0001193 114.0427 246.0690 15.08809122 66243,6917.975,95.44,540.665,539.014,0.0
52498.0,STARLINK-3925,PAYLOAD,2023-07-13 21:42:58,15.08831717,0.0001126,53.2169,72.6519,101.4043,258.7075,0.00012957,1.774e-05,0.0,0 STARLINK-3925,1 52498U 22049AZ  23194.90484222  .00001774  00000-0  12957-3 0  9991,2 52498  53.2169  72.6519 0001126 101.4043 258.7075 15.08831717 66286,6917.906,95.438,540.55,538.992,0.0
52498.0,STARLINK-3925,PAYLOAD,2023-07-14 23:09:08,15.08849738,0.0001114,53.2164,67.8946,96.6509,263.461,0.00028241,4.211e-05,0.0,0 STARLINK-3925,1 52498U 22049AZ  23195.96467692  .00004211  00000-0  28241-3 0  9992,2 52498  53.2164  67.8946 0001114  96.6509 263.4610 15.08849738 66448,6917.851,95.437,540.486,538.945,0.0
52498.0,STARLINK-3925,PAYLOAD,2023-07-15 15:03:00,15.08839536,0.0001215,53.2169,64.9197,92.4633,267.6498,8.7268e-05,1.101e-05,0.0,0 STARLINK-3925,1 52498U 22049AZ  23196.62708365  .00001101  00000-0  87268-4 0  9991,2 52498  53.2169  64.9197 0001215  92.4633 267.6498 15.08839536 66549,6917.882,95.438,540.587,538.906,0.0
52498.0,STARLINK-3925,PAYLOAD,2023-07-16 18:04:33,15.08842635,0.0001148,53.2167,59.8639,97.4786,262.6336,8.5777e-06,-1.51e-06,0.0,0 STARLINK-3925,1 52498U 22049AZ  23197.75316378 -.00000151  00000-0  85777-5 0  9994,2 52498  53.2167  59.8639 0001148  97.4786 262.6336 15.08842635 66719,6917.872,95.437,540.532,538.943,0.0
52498.0,STARLINK-3925,PAYLOAD,2023-07-17 17:55:20,15.08835766,0.0001144,53.2162,55.4038,102.5678,257.5442,4.6419e-05,4.51e-06,0.0,0 STARLINK-3925,1 52498U 22049AZ  23198.74676846  .00000451  00000-0  46419-4 0  9994,2 52498  53.2162  55.4038 0001144 102.5678 257.5442 15.08835766 66867,6917.893,95.438,540.55,538.967,0.0
52498.0,STARLINK-3925,PAYLOAD,2023-07-19 00:07:39,15.08847991,0.0001147,53.2157,49.7543,109.5002,250.6114,0.00015632,2.201e-05,0.0,0 STARLINK-3925,1 52498U 22049AZ  23200.00532182  .00002201  00000-0  15632-3 0  9998,2 52498  53.2157  49.7543 0001147 109.5002 250.6114 15.08847991 67054,6917.856,95.437,540.514,538.927,0.0
52498.0,STARLINK-3925,PAYLOAD,2023-07-19 09:39:59,15.08835761,0.0001484,53.2152,47.9666,131.8949,228.217,3.1852e-05,2.19e-06,0.0,0 STARLINK-3925,1 52498U 22049AZ  23200.40276707  .00000219  00000-0  31852-4 0  9990,2 52498  53.2152  47.9666 0001484 131.8949 228.2170 15.08835761 67119,6917.893,95.438,540.785,538.732,0.0
